{
    "place": [{
            "placeName": "Varanasi, Uttar Pradesh, India",
            "placeNameOriginalChar": "",
            "placeLat": "25.3176452",
            "placeLong": "82.97391440000001"
        },
	{
            "placeName": "",
            "placeNameOriginalChar": "",
            "placeLat": "10",
            "placeLong": "10"
        },
	{
            "placeName": "InvalidLatLongLetters",
            "placeNameOriginalChar": "",
            "placeLat": "ththt",
            "placeLong": "ththt"
        },
	{
            "placeName": "ValidLatLongEmpty",
            "placeNameOriginalChar": "",
            "placeLat": "",
            "placeLong": ""
        },
	{
            "placeName": "ValidPlace",
            "placeNameOriginalChar": "",
            "placeLat": "10",
            "placeLong": "10"
        },
	{
            "placeName": "ValidPlaceEditExistingPlace",
            "placeNameOriginalChar": "",
            "placeLat": "10",
            "placeLong": "10"
        },
	{
            "placeName": "ValidPlaceEditBlankPlace",
            "placeNameOriginalChar": "",
            "placeLat": "10",
            "placeLong": "10"
        },
	{
            "placeName": "ValidPlaceEditLetterLatLong",
            "placeNameOriginalChar": "",
            "placeLat": "10",
            "placeLong": "10"
        },
	{
            "placeName": "ValidPlaceEditBlankLatLong",
            "placeNameOriginalChar": "",
            "placeLat": "10",
            "placeLong": "10"
        },
	{
            "placeName": "ValidPlaceEdit",
            "placeNameOriginalChar": "",
            "placeLat": "10",
            "placeLong": "10"
        }]
}

